{
    "type": "Feature",
    "properties": {
        "stroke": "#91b021",
        "stroke-width": 2,
        "stroke-opacity": 1,
        "fill": "#aabb30",
        "fill-opacity": 0.5
    },
    "geometry": {
        "coordinates": [
            [
                [-45.86280398196308, -23.230606606618863],
                [-45.863351523801896, -23.23117264889642],
                [-45.863116863014056, -23.231325390052234],
                [-45.86287242469257, -23.231379298654275],
                [-45.86257909870801, -23.231388283419065],
                [-45.862227107525854, -23.231388283419065],
                [-45.86191422647482, -23.23125351188341],
                [-45.86174800841653, -23.23101092277615],
                [-45.86172845335096, -23.23067848513604],
                [-45.861904448942056, -23.23033706183304],
                [-45.862246662591446, -23.230040561940186],
                [-45.86280398196308, -23.230606606618863]
            ]
        ],
        "type": "Polygon"
    },
    "id": 1
}
