{
    "type": "Feature",
    "properties": {
        "stroke": "#91b021",
        "stroke-width": 2,
        "stroke-opacity": 1,
        "fill": "#aabb30",
        "fill-opacity": 0.5
    },
    "geometry": {
        "coordinates": [
            [
                [-48.05732098919404, -22.215806195709405],
                [-48.05732098919404, -22.23575174628057],
                [-48.03471812268424, -22.23575174628057],
                [-48.03471812268424, -22.215806195709405],
                [-48.05732098919404, -22.215806195709405]
            ]
        ],
        "type": "Polygon"
    },
    "id": 1
}
